{
 "generated_at": "2026-07-05T07:57:19Z",
 "sources": [
  {
   "name": "CelesTrak",
   "url": "https://celestrak.org/NORAD/elements/",
   "license": "frei verfügbar; Attribution. Ursprünglich USSPACECOM/Space-Track."
  },
  {
   "name": "GCAT (J. McDowell, planet4589.org)",
   "url": "https://planet4589.org/space/gcat/",
   "license": "CC-BY 4.0"
  }
 ],
 "satellites": [
  {
   "norad": 58990,
   "name": "INSAT-3DS",
   "intl": "2024-033A",
   "group": "weather",
   "gcat": {
    "class": "C",
    "category": "MET",
    "owner": "ISRO",
    "state": "IN"
   },
   "omm": {
    "OBJECT_NAME": "INSAT-3DS",
    "OBJECT_ID": "2024-033A",
    "EPOCH": "2026-07-04T14:16:44.720256",
    "MEAN_MOTION": 1.00273286,
    "ECCENTRICITY": 0.00012371,
    "INCLINATION": 0.0757,
    "RA_OF_ASC_NODE": 96.3178,
    "ARG_OF_PERICENTER": 12.9123,
    "MEAN_ANOMALY": 109.6149,
    "EPHEMERIS_TYPE": 0,
    "CLASSIFICATION_TYPE": "U",
    "NORAD_CAT_ID": 58990,
    "ELEMENT_SET_NO": 999,
    "REV_AT_EPOCH": 4724,
    "BSTAR": 0,
    "MEAN_MOTION_DOT": -0.00000144,
    "MEAN_MOTION_DDOT": 0
   }
  },
  {
   "norad": 61735,
   "name": "IONOSFERA-M 1",
   "intl": "2024-199A",
   "group": "resource",
   "gcat": {
    "class": "C",
    "category": "SCI",
    "owner": "VNIIEMI",
    "state": "RU"
   },
   "omm": {
    "OBJECT_NAME": "IONOSFERA-M 1",
    "OBJECT_ID": "2024-199A",
    "EPOCH": "2026-07-04T15:13:49.725120",
    "MEAN_MOTION": 14.22757784,
    "ECCENTRICITY": 0.00022035,
    "INCLINATION": 98.715,
    "RA_OF_ASC_NODE": 58.6208,
    "ARG_OF_PERICENTER": 87.0812,
    "MEAN_ANOMALY": 273.0618,
    "EPHEMERIS_TYPE": 0,
    "CLASSIFICATION_TYPE": "U",
    "NORAD_CAT_ID": 61735,
    "ELEMENT_SET_NO": 999,
    "REV_AT_EPOCH": 13018,
    "BSTAR": 0.000058810206,
    "MEAN_MOTION_DOT": 8.8e-7,
    "MEAN_MOTION_DDOT": 0
   }
  },
  {
   "norad": 61736,
   "name": "IONOSFERA-M 2",
   "intl": "2024-199B",
   "group": "resource",
   "gcat": {
    "class": "C",
    "category": "SCI",
    "owner": "VNIIEMI",
    "state": "RU"
   },
   "omm": {
    "OBJECT_NAME": "IONOSFERA-M 2",
    "OBJECT_ID": "2024-199B",
    "EPOCH": "2026-07-04T14:21:53.068896",
    "MEAN_MOTION": 14.22761127,
    "ECCENTRICITY": 0.00003576,
    "INCLINATION": 98.7149,
    "RA_OF_ASC_NODE": 58.4956,
    "ARG_OF_PERICENTER": 59.9165,
    "MEAN_ANOMALY": 300.2048,
    "EPHEMERIS_TYPE": 0,
    "CLASSIFICATION_TYPE": "U",
    "NORAD_CAT_ID": 61736,
    "ELEMENT_SET_NO": 999,
    "REV_AT_EPOCH": 13330,
    "BSTAR": 0.000061335716,
    "MEAN_MOTION_DOT": 9.3e-7,
    "MEAN_MOTION_DDOT": 0
   }
  },
  {
   "norad": 64876,
   "name": "IONOSFERA-M 3",
   "intl": "2025-155A",
   "group": "resource",
   "gcat": {
    "class": "C",
    "category": "SCI",
    "owner": "VNIIEMI",
    "state": "RU"
   },
   "omm": {
    "OBJECT_NAME": "IONOSFERA-M 3",
    "OBJECT_ID": "2025-155A",
    "EPOCH": "2026-07-04T15:09:49.512384",
    "MEAN_MOTION": 14.21489596,
    "ECCENTRICITY": 0.00019161,
    "INCLINATION": 98.6034,
    "RA_OF_ASC_NODE": 147.0984,
    "ARG_OF_PERICENTER": 128.3379,
    "MEAN_ANOMALY": 231.7971,
    "EPHEMERIS_TYPE": 0,
    "CLASSIFICATION_TYPE": "U",
    "NORAD_CAT_ID": 64876,
    "ELEMENT_SET_NO": 999,
    "REV_AT_EPOCH": 4888,
    "BSTAR": 0.000059717357,
    "MEAN_MOTION_DOT": 8.8e-7,
    "MEAN_MOTION_DDOT": 0
   }
  },
  {
   "norad": 64877,
   "name": "IONOSFERA-M 4",
   "intl": "2025-155B",
   "group": "resource",
   "gcat": {
    "class": "C",
    "category": "SCI",
    "owner": "VNIIEMI",
    "state": "RU"
   },
   "omm": {
    "OBJECT_NAME": "IONOSFERA-M 4",
    "OBJECT_ID": "2025-155B",
    "EPOCH": "2026-07-04T14:18:35.703648",
    "MEAN_MOTION": 14.21491999,
    "ECCENTRICITY": 0.00016146,
    "INCLINATION": 98.6039,
    "RA_OF_ASC_NODE": 146.9809,
    "ARG_OF_PERICENTER": 109.8998,
    "MEAN_ANOMALY": 250.2353,
    "EPHEMERIS_TYPE": 0,
    "CLASSIFICATION_TYPE": "U",
    "NORAD_CAT_ID": 64877,
    "ELEMENT_SET_NO": 999,
    "REV_AT_EPOCH": 4887,
    "BSTAR": 0.000062013537,
    "MEAN_MOTION_DOT": 9.3e-7,
    "MEAN_MOTION_DDOT": 0
   }
  },
  {
   "norad": 28649,
   "name": "IRS-P5 (CARTOSAT-1)",
   "intl": "2005-017A",
   "group": "resource",
   "gcat": {
    "class": null,
    "category": null,
    "owner": null,
    "state": null
   },
   "omm": {
    "OBJECT_NAME": "IRS-P5 (CARTOSAT-1)",
    "OBJECT_ID": "2005-017A",
    "EPOCH": "2026-07-04T12:37:48.917568",
    "MEAN_MOTION": 14.91099495,
    "ECCENTRICITY": 0.00020042,
    "INCLINATION": 97.5305,
    "RA_OF_ASC_NODE": 207.8041,
    "ARG_OF_PERICENTER": 59.7616,
    "MEAN_ANOMALY": 300.3801,
    "EPHEMERIS_TYPE": 0,
    "CLASSIFICATION_TYPE": "U",
    "NORAD_CAT_ID": 28649,
    "ELEMENT_SET_NO": 999,
    "REV_AT_EPOCH": 14640,
    "BSTAR": 0.000210435,
    "MEAN_MOTION_DOT": 0.00002033,
    "MEAN_MOTION_DDOT": 0
   }
  },
  {
   "norad": 41240,
   "name": "JASON-3",
   "intl": "2016-002A",
   "group": "resource",
   "gcat": {
    "class": "C",
    "category": "SCI/MET",
    "owner": "CNES/NOAA",
    "state": "F"
   },
   "omm": {
    "OBJECT_NAME": "JASON-3",
    "OBJECT_ID": "2016-002A",
    "EPOCH": "2026-07-04T15:12:43.228224",
    "MEAN_MOTION": 12.87623482,
    "ECCENTRICITY": 0.00082855,
    "INCLINATION": 66.0418,
    "RA_OF_ASC_NODE": 89.1569,
    "ARG_OF_PERICENTER": 271.7864,
    "MEAN_ANOMALY": 88.2206,
    "EPHEMERIS_TYPE": 0,
    "CLASSIFICATION_TYPE": "U",
    "NORAD_CAT_ID": 41240,
    "ELEMENT_SET_NO": 999,
    "REV_AT_EPOCH": 48949,
    "BSTAR": 0.0002082725,
    "MEAN_MOTION_DOT": -1e-7,
    "MEAN_MOTION_DDOT": 0
   }
  },
  {
   "norad": 39731,
   "name": "KAZEOSAT 1",
   "intl": "2014-024A",
   "group": "resource",
   "gcat": {
    "class": "C",
    "category": "IMG",
    "owner": "KAZK",
    "state": "KZ"
   },
   "omm": {
    "OBJECT_NAME": "KAZEOSAT 1",
    "OBJECT_ID": "2014-024A",
    "EPOCH": "2026-07-03T22:50:10.114944",
    "MEAN_MOTION": 14.42086207,
    "ECCENTRICITY": 0.0001156,
    "INCLINATION": 98.3202,
    "RA_OF_ASC_NODE": 256.9818,
    "ARG_OF_PERICENTER": 78.7649,
    "MEAN_ANOMALY": 281.3671,
    "EPHEMERIS_TYPE": 0,
    "CLASSIFICATION_TYPE": "U",
    "NORAD_CAT_ID": 39731,
    "ELEMENT_SET_NO": 999,
    "REV_AT_EPOCH": 64097,
    "BSTAR": 0.000036168555,
    "MEAN_MOTION_DOT": 7.6e-7,
    "MEAN_MOTION_DDOT": 0
   }
  },
  {
   "norad": 40010,
   "name": "KAZEOSAT 2",
   "intl": "2014-033A",
   "group": "resource",
   "gcat": {
    "class": "C",
    "category": "IMG",
    "owner": "KAZK",
    "state": "KZ"
   },
   "omm": {
    "OBJECT_NAME": "KAZEOSAT 2",
    "OBJECT_ID": "2014-033A",
    "EPOCH": "2026-07-04T14:36:48.196224",
    "MEAN_MOTION": 14.85488912,
    "ECCENTRICITY": 0.00070031,
    "INCLINATION": 97.5395,
    "RA_OF_ASC_NODE": 24.2993,
    "ARG_OF_PERICENTER": 261.8722,
    "MEAN_ANOMALY": 98.1699,
    "EPHEMERIS_TYPE": 0,
    "CLASSIFICATION_TYPE": "U",
    "NORAD_CAT_ID": 40010,
    "ELEMENT_SET_NO": 999,
    "REV_AT_EPOCH": 65154,
    "BSTAR": 0.000007914488,
    "MEAN_MOTION_DOT": 1.8e-7,
    "MEAN_MOTION_DDOT": 0
   }
  },
  {
   "norad": 43783,
   "name": "KAZSTSAT",
   "intl": "2018-099AB",
   "group": "resource",
   "gcat": {
    "class": "B",
    "category": "IMG",
    "owner": "GHALAM",
    "state": "KZ"
   },
   "omm": {
    "OBJECT_NAME": "KAZSTSAT",
    "OBJECT_ID": "2018-099AB",
    "EPOCH": "2026-07-04T12:13:51.679488",
    "MEAN_MOTION": 14.99932801,
    "ECCENTRICITY": 0.00081693,
    "INCLINATION": 97.4306,
    "RA_OF_ASC_NODE": 216.6545,
    "ARG_OF_PERICENTER": 19.9379,
    "MEAN_ANOMALY": 340.2163,
    "EPHEMERIS_TYPE": 0,
    "CLASSIFICATION_TYPE": "U",
    "NORAD_CAT_ID": 43783,
    "ELEMENT_SET_NO": 999,
    "REV_AT_EPOCH": 41390,
    "BSTAR": 0.00019997988,
    "MEAN_MOTION_DOT": 0.00002428,
    "MEAN_MOTION_DDOT": 0
   }
  }
 ]
}
